{"type": "FeatureCollection", "features": [ {"type": "Feature", "properties": {"norad_id": 66425, "name": "STARLINK-35555", "group": "last-30-days", "lat": 10.297829010941825, "lon": 113.83685405048239, "alt_km": 413.5680907156411, "timestamp": "2025-12-03T06:58:42.031723+00:00", "meta": {"OBJECT_NAME": "STARLINK-35555", "OBJECT_ID": "2025-259D", "EPOCH": "2025-12-02T20:00:03.000384", "MEAN_MOTION": 15.5063902, "ECCENTRICITY": 0.0001463, "INCLINATION": 43, "RA_OF_ASC_NODE": 105.2694, "ARG_OF_PERICENTER": 276.9851, "MEAN_ANOMALY": 61.9791, "EPHEMERIS_TYPE": 0, "CLASSIFICATION_TYPE": "U", "NORAD_CAT_ID": 66425, "ELEMENT_SET_NO": 999, "REV_AT_EPOCH": 468, "BSTAR": -0.0018335, "MEAN_MOTION_DOT": -0.0010668, "MEAN_MOTION_DDOT": 0}, "tle": {"line1": "1 66425U 25259D   25336.83336806 -.00106680  00000+0 -18335-2 0  9996", "line2": "2 66425  43.0000 105.2694 0001463 276.9851  61.9791 15.50639020  4683"}}, "geometry": {"type": "Point", "coordinates": [113.83685405048239, 10.297829010941825]}}, {"type": "Feature", "properties": {"norad_id": 66426, "name": "STARLINK-35589", "group": "last-30-days", "lat": 11.570474766234346, "lon": 115.28255580049274, "alt_km": 413.31680760885865, "timestamp": "2025-12-03T06:58:42.031733+00:00", "meta": {"OBJECT_NAME": "STARLINK-35589", "OBJECT_ID": "2025-259E", "EPOCH": "2025-12-02T20:00:03.000384", "MEAN_MOTION": 15.50619745, "ECCENTRICITY": 0.0001446, "INCLINATION": 42.9996, "RA_OF_ASC_NODE": 105.2667, "ARG_OF_PERICENTER": 276.1761, "MEAN_ANOMALY": 64.6812, "EPHEMERIS_TYPE": 0, "CLASSIFICATION_TYPE": "U", "NORAD_CAT_ID": 66426, "ELEMENT_SET_NO": 999, "REV_AT_EPOCH": 468, "BSTAR": -0.00078439, "MEAN_MOTION_DOT": -0.00046154, "MEAN_MOTION_DDOT": 0}, "tle": {"line1": "1 66426U 25259E   25336.83336806 -.00046154  00000+0 -78439-3 0  9998", "line2": "2 66426  42.9996 105.2667 0001446 276.1761  64.6812 15.50619745  4685"}}, "geometry": {"type": "Point", "coordinates": [115.28255580049274, 11.570474766234346]}}, {"type": "Feature", "properties": {"norad_id": 66427, "name": "STARLINK-35611", "group": "last-30-days", "lat": 12.849529329641058, "lon": 116.7543304388206, "alt_km": 413.3920637875117, "timestamp": "2025-12-03T06:58:42.031743+00:00", "meta": {"OBJECT_NAME": "STARLINK-35611", "OBJECT_ID": "2025-259F", "EPOCH": "2025-12-02T20:00:03.000384", "MEAN_MOTION": 15.50666286, "ECCENTRICITY": 0.0001634, "INCLINATION": 42.9999, "RA_OF_ASC_NODE": 105.2612, "ARG_OF_PERICENTER": 272.7861, "MEAN_ANOMALY": 70.0007, "EPHEMERIS_TYPE": 0, "CLASSIFICATION_TYPE": "U", "NORAD_CAT_ID": 66427, "ELEMENT_SET_NO": 999, "REV_AT_EPOCH": 468, "BSTAR": -0.0025995, "MEAN_MOTION_DOT": -0.00150421, "MEAN_MOTION_DDOT": 0}, "tle": {"line1": "1 66427U 25259F   25336.83336806 -.00150421  00000+0 -25995-2 0  9990", "line2": "2 66427  42.9999 105.2612 0001634 272.7861  70.0007 15.50666286  4680"}}, "geometry": {"type": "Point", "coordinates": [116.7543304388206, 12.849529329641058]}}, {"type": "Feature", "properties": {"norad_id": 66428, "name": "STARLINK-35610", "group": "last-30-days", "lat": 14.107422350733856, "lon": 118.2269443552732, "alt_km": 413.1117636521449, "timestamp": "2025-12-03T06:58:42.031753+00:00", "meta": {"OBJECT_NAME": "STARLINK-35610", "OBJECT_ID": "2025-259G", "EPOCH": "2025-12-02T20:00:03.000384", "MEAN_MOTION": 15.50642016, "ECCENTRICITY": 0.0001528, "INCLINATION": 42.9998, "RA_OF_ASC_NODE": 105.2565, "ARG_OF_PERICENTER": 273.8032, "MEAN_ANOMALY": 70.8885, "EPHEMERIS_TYPE": 0, "CLASSIFICATION_TYPE": "U", "NORAD_CAT_ID": 66428, "ELEMENT_SET_NO": 999, "REV_AT_EPOCH": 468, "BSTAR": -0.0015884, "MEAN_MOTION_DOT": -0.00092642, "MEAN_MOTION_DDOT": 0}, "tle": {"line1": "1 66428U 25259G   25336.83336806 -.00092642  00000+0 -15884-2 0  9997", "line2": "2 66428  42.9998 105.2565 0001528 273.8032  70.8885 15.50642016  4688"}}, "geometry": {"type": "Point", "coordinates": [118.2269443552732, 14.107422350733856]}}, {"type": "Feature", "properties": {"norad_id": 66429, "name": "STARLINK-35533", "group": "last-30-days", "lat": 15.361234929478245, "lon": 119.72062995294475, "alt_km": 412.8930987370677, "timestamp": "2025-12-03T06:58:42.031763+00:00", "meta": {"OBJECT_NAME": "STARLINK-35533", "OBJECT_ID": "2025-259H", "EPOCH": "2025-12-02T20:00:03.000384", "MEAN_MOTION": 15.50611302, "ECCENTRICITY": 0.0001486, "INCLINATION": 42.9998, "RA_OF_ASC_NODE": 105.2505, "ARG_OF_PERICENTER": 272.0789, "MEAN_ANOMALY": 74.5322, "EPHEMERIS_TYPE": 0, "CLASSIFICATION_TYPE": "U", "NORAD_CAT_ID": 66429, "ELEMENT_SET_NO": 999, "REV_AT_EPOCH": 468, "BSTAR": -0.0005032, "MEAN_MOTION_DOT": -0.00029784, "MEAN_MOTION_DDOT": 0}, "tle": {"line1": "1 66429U 25259H   25336.83336806 -.00029784  00000+0 -50320-3 0  9990", "line2": "2 66429  42.9998 105.2505 0001486 272.0789  74.5322 15.50611302  4687"}}, "geometry": {"type": "Point", "coordinates": [119.72062995294475, 15.361234929478245]}}, {"type": "Feature", "properties": {"norad_id": 66430, "name": "STARLINK-35470", "group": "last-30-days", "lat": 16.60254699412436, "lon": 121.23088857534475, "alt_km": 412.5478054741661, "timestamp": "2025-12-03T06:58:42.031775+00:00", "meta": {"OBJECT_NAME": "STARLINK-35470", "OBJECT_ID": "2025-259J", "EPOCH": "2025-12-02T20:00:03.000384", "MEAN_MOTION": 15.50560375, "ECCENTRICITY": 0.0001459, "INCLINATION": 42.9999, "RA_OF_ASC_NODE": 105.246, "ARG_OF_PERICENTER": 271.7547, "MEAN_ANOMALY": 76.76, "EPHEMERIS_TYPE": 0, "CLASSIFICATION_TYPE": "U", "NORAD_CAT_ID": 66430, "ELEMENT_SET_NO": 999, "REV_AT_EPOCH": 468, "BSTAR": 0.0016047, "MEAN_MOTION_DOT": 0.00094882, "MEAN_MOTION_DDOT": 0}, "tle": {"line1": "1 66430U 25259J   25336.83336806  .00094882  00000+0  16047-2 0  9998", "line2": "2 66430  42.9999 105.2460 0001459 271.7547  76.7600 15.50560375  4684"}}, "geometry": {"type": "Point", "coordinates": [121.23088857534475, 16.60254699412436]}}, {"type": "Feature", "properties": {"norad_id": 66431, "name": "STARLINK-35439", "group": "last-30-days", "lat": 17.83779371299714, "lon": 122.76567228310734, "alt_km": 412.4787680426298, "timestamp": "2025-12-03T06:58:42.031785+00:00", "meta": {"OBJECT_NAME": "STARLINK-35439", "OBJECT_ID": "2025-259K", "EPOCH": "2025-12-02T20:00:03.000384", "MEAN_MOTION": 15.50569638, "ECCENTRICITY": 0.0001442, "INCLINATION": 42.9998, "RA_OF_ASC_NODE": 105.2399, "ARG_OF_PERICENTER": 267.4805, "MEAN_ANOMALY": 82.9564, "EPHEMERIS_TYPE": 0, "CLASSIFICATION_TYPE": "U", "NORAD_CAT_ID": 66431, "ELEMENT_SET_NO": 999, "REV_AT_EPOCH": 468, "BSTAR": 0.0012295, "MEAN_MOTION_DOT": 0.00072434, "MEAN_MOTION_DDOT": 0}, "tle": {"line1": "1 66431U 25259K   25336.83336806  .00072434  00000+0  12295-2 0  9999", "line2": "2 66431  42.9998 105.2399 0001442 267.4805  82.9564 15.50569638  4685"}}, "geometry": {"type": "Point", "coordinates": [122.76567228310734, 17.83779371299714]}}, {"type": "Feature", "properties": {"norad_id": 66432, "name": "STARLINK-35446", "group": "last-30-days", "lat": 19.05200135054836, "lon": 124.31148190968419, "alt_km": 412.4262562091726, "timestamp": "2025-12-03T06:58:42.031797+00:00", "meta": {"OBJECT_NAME": "STARLINK-35446", "OBJECT_ID": "2025-259L", "EPOCH": "2025-12-02T20:00:03.000384", "MEAN_MOTION": 15.50598654, "ECCENTRICITY": 0.0001528, "INCLINATION": 42.9999, "RA_OF_ASC_NODE": 105.2349, "ARG_OF_PERICENTER": 268.9992, "MEAN_ANOMALY": 83.3484, "EPHEMERIS_TYPE": 0, "CLASSIFICATION_TYPE": "U", "NORAD_CAT_ID": 66432, "ELEMENT_SET_NO": 999, "REV_AT_EPOCH": 468, "BSTAR": 2.1062e-05, "MEAN_MOTION_DOT": 8.95e-06, "MEAN_MOTION_DDOT": 0}, "tle": {"line1": "1 66432U 25259L   25336.83336806  .00000895  00000+0  21062-4 0  9996", "line2": "2 66432  42.9999 105.2349 0001528 268.9992  83.3484 15.50598654  4686"}}, "geometry": {"type": "Point", "coordinates": [124.31148190968419, 19.05200135054836]}}, {"type": "Feature", "properties": {"norad_id": 66433, "name": "STARLINK-35457", "group": "last-30-days", "lat": 20.263016159589995, "lon": 125.89520054593741, "alt_km": 412.27706565854896, "timestamp": "2025-12-03T06:58:42.031809+00:00", "meta": {"OBJECT_NAME": "STARLINK-35457", "OBJECT_ID": "2025-259M", "EPOCH": "2025-12-02T20:00:03.000384", "MEAN_MOTION": 15.506265, "ECCENTRICITY": 0.0001425, "INCLINATION": 42.9999, "RA_OF_ASC_NODE": 105.2318, "ARG_OF_PERICENTER": 271.3259, "MEAN_ANOMALY": 82.9438, "EPHEMERIS_TYPE": 0, "CLASSIFICATION_TYPE": "U", "NORAD_CAT_ID": 66433, "ELEMENT_SET_NO": 999, "REV_AT_EPOCH": 468, "BSTAR": -0.001001, "MEAN_MOTION_DOT": -0.00058728, "MEAN_MOTION_DDOT": 0}, "tle": {"line1": "1 66433U 25259M   25336.83336806 -.00058728  00000+0 -10010-2 0  9996", "line2": "2 66433  42.9999 105.2318 0001425 271.3259  82.9438 15.50626500  4689"}}, "geometry": {"type": "Point", "coordinates": [125.89520054593741, 20.263016159589995]}}, {"type": "Feature", "properties": {"norad_id": 66434, "name": "STARLINK-35389", "group": "last-30-days", "lat": 21.468343668722003, "lon": 127.5139215170966, "alt_km": 412.24999688408934, "timestamp": "2025-12-03T06:58:42.031819+00:00", "meta": {"OBJECT_NAME": "STARLINK-35389", "OBJECT_ID": "2025-259N", "EPOCH": "2025-12-02T20:00:03.000384", "MEAN_MOTION": 15.50599334, "ECCENTRICITY": 0.0001418, "INCLINATION": 43.0001, "RA_OF_ASC_NODE": 105.2269, "ARG_OF_PERICENTER": 268.8658, "MEAN_ANOMALY": 87.3916, "EPHEMERIS_TYPE": 0, "CLASSIFICATION_TYPE": "U", "NORAD_CAT_ID": 66434, "ELEMENT_SET_NO": 999, "REV_AT_EPOCH": 468, "BSTAR": -0.0011431, "MEAN_MOTION_DOT": -0.00066881, "MEAN_MOTION_DDOT": 0}, "tle": {"line1": "1 66434U 25259N   25336.83336806 -.00066881  00000+0 -11431-2 0  9994", "line2": "2 66434  43.0001 105.2269 0001418 268.8658  87.3916 15.50599334  4681"}}, "geometry": {"type": "Point", "coordinates": [127.5139215170966, 21.468343668722003]}}]}